<?xml version="1.0" encoding="UTF-8"?>
<ndm xmlns:xsi="http://www.w3.org/2001/XMLSchema-instance" xsi:noNamespaceSchemaLocation="https://sanaregistry.org/r/ndmxml_unqualified/ndmxml-2.0.0-master-2.0.xsd">
<omm id="CCSDS_OMM_VERS" version="2.0">
<header><CREATION_DATE/><ORIGINATOR/></header><body><segment><metadata><OBJECT_NAME>KUIPER-00089</OBJECT_NAME><OBJECT_ID>2025-151U</OBJECT_ID><CENTER_NAME>EARTH</CENTER_NAME><REF_FRAME>TEME</REF_FRAME><TIME_SYSTEM>UTC</TIME_SYSTEM><MEAN_ELEMENT_THEORY>SGP4</MEAN_ELEMENT_THEORY></metadata><data><meanElements><EPOCH>2025-12-04T07:44:46.934016</EPOCH><MEAN_MOTION>14.79966414</MEAN_MOTION><ECCENTRICITY>.0001431</ECCENTRICITY><INCLINATION>51.9019</INCLINATION><RA_OF_ASC_NODE>347.2985</RA_OF_ASC_NODE><ARG_OF_PERICENTER>43.5090</ARG_OF_PERICENTER><MEAN_ANOMALY>316.5985</MEAN_ANOMALY></meanElements><tleParameters><EPHEMERIS_TYPE>0</EPHEMERIS_TYPE><CLASSIFICATION_TYPE>U</CLASSIFICATION_TYPE><NORAD_CAT_ID>64834</NORAD_CAT_ID><ELEMENT_SET_NO>999</ELEMENT_SET_NO><REV_AT_EPOCH>2139</REV_AT_EPOCH><BSTAR>.16695E-2</BSTAR><MEAN_MOTION_DOT>.12539E-3</MEAN_MOTION_DOT><MEAN_MOTION_DDOT>0</MEAN_MOTION_DDOT></tleParameters></data></segment></body></omm>
<omm id="CCSDS_OMM_VERS" version="2.0">
<header><CREATION_DATE/><ORIGINATOR/></header><body><segment><metadata><OBJECT_NAME>KUIPER-00090</OBJECT_NAME><OBJECT_ID>2025-151V</OBJECT_ID><CENTER_NAME>EARTH</CENTER_NAME><REF_FRAME>TEME</REF_FRAME><TIME_SYSTEM>UTC</TIME_SYSTEM><MEAN_ELEMENT_THEORY>SGP4</MEAN_ELEMENT_THEORY></metadata><data><meanElements><EPOCH>2025-12-04T07:23:57.151968</EPOCH><MEAN_MOTION>14.78401789</MEAN_MOTION><ECCENTRICITY>.0004223</ECCENTRICITY><INCLINATION>51.8989</INCLINATION><RA_OF_ASC_NODE>338.9860</RA_OF_ASC_NODE><ARG_OF_PERICENTER>44.0713</ARG_OF_PERICENTER><MEAN_ANOMALY>316.0584</MEAN_ANOMALY></meanElements><tleParameters><EPHEMERIS_TYPE>0</EPHEMERIS_TYPE><CLASSIFICATION_TYPE>U</CLASSIFICATION_TYPE><NORAD_CAT_ID>64835</NORAD_CAT_ID><ELEMENT_SET_NO>999</ELEMENT_SET_NO><REV_AT_EPOCH>2150</REV_AT_EPOCH><BSTAR>.11124E-2</BSTAR><MEAN_MOTION_DOT>.797E-4</MEAN_MOTION_DOT><MEAN_MOTION_DDOT>0</MEAN_MOTION_DDOT></tleParameters></data></segment></body></omm>
<omm id="CCSDS_OMM_VERS" version="2.0">
<header><CREATION_DATE/><ORIGINATOR/></header><body><segment><metadata><OBJECT_NAME>KUIPER-00091</OBJECT_NAME><OBJECT_ID>2025-151W</OBJECT_ID><CENTER_NAME>EARTH</CENTER_NAME><REF_FRAME>TEME</REF_FRAME><TIME_SYSTEM>UTC</TIME_SYSTEM><MEAN_ELEMENT_THEORY>SGP4</MEAN_ELEMENT_THEORY></metadata><data><meanElements><EPOCH>2025-12-04T09:25:56.394048</EPOCH><MEAN_MOTION>14.79935260</MEAN_MOTION><ECCENTRICITY>.0007932</ECCENTRICITY><INCLINATION>51.9012</INCLINATION><RA_OF_ASC_NODE>344.4951</RA_OF_ASC_NODE><ARG_OF_PERICENTER>339.4032</ARG_OF_PERICENTER><MEAN_ANOMALY>20.6609</MEAN_ANOMALY></meanElements><tleParameters><EPHEMERIS_TYPE>0</EPHEMERIS_TYPE><CLASSIFICATION_TYPE>U</CLASSIFICATION_TYPE><NORAD_CAT_ID>64836</NORAD_CAT_ID><ELEMENT_SET_NO>999</ELEMENT_SET_NO><REV_AT_EPOCH>2143</REV_AT_EPOCH><BSTAR>.15692E-2</BSTAR><MEAN_MOTION_DOT>.11767E-3</MEAN_MOTION_DOT><MEAN_MOTION_DDOT>0</MEAN_MOTION_DDOT></tleParameters></data></segment></body></omm>
<omm id="CCSDS_OMM_VERS" version="2.0">
<header><CREATION_DATE/><ORIGINATOR/></header><body><segment><metadata><OBJECT_NAME>KUIPER-00092</OBJECT_NAME><OBJECT_ID>2025-151X</OBJECT_ID><CENTER_NAME>EARTH</CENTER_NAME><REF_FRAME>TEME</REF_FRAME><TIME_SYSTEM>UTC</TIME_SYSTEM><MEAN_ELEMENT_THEORY>SGP4</MEAN_ELEMENT_THEORY></metadata><data><meanElements><EPOCH>2025-12-04T10:50:40.768800</EPOCH><MEAN_MOTION>14.80084755</MEAN_MOTION><ECCENTRICITY>.0006434</ECCENTRICITY><INCLINATION>51.9019</INCLINATION><RA_OF_ASC_NODE>351.7249</RA_OF_ASC_NODE><ARG_OF_PERICENTER>288.7068</ARG_OF_PERICENTER><MEAN_ANOMALY>71.3195</MEAN_ANOMALY></meanElements><tleParameters><EPHEMERIS_TYPE>0</EPHEMERIS_TYPE><CLASSIFICATION_TYPE>U</CLASSIFICATION_TYPE><NORAD_CAT_ID>64837</NORAD_CAT_ID><ELEMENT_SET_NO>999</ELEMENT_SET_NO><REV_AT_EPOCH>2255</REV_AT_EPOCH><BSTAR>.12957E-2</BSTAR><MEAN_MOTION_DOT>.9708E-4</MEAN_MOTION_DOT><MEAN_MOTION_DDOT>0</MEAN_MOTION_DDOT></tleParameters></data></segment></body></omm>
<omm id="CCSDS_OMM_VERS" version="2.0">
<header><CREATION_DATE/><ORIGINATOR/></header><body><segment><metadata><OBJECT_NAME>KUIPER-00093</OBJECT_NAME><OBJECT_ID>2025-151Y</OBJECT_ID><CENTER_NAME>EARTH</CENTER_NAME><REF_FRAME>TEME</REF_FRAME><TIME_SYSTEM>UTC</TIME_SYSTEM><MEAN_ELEMENT_THEORY>SGP4</MEAN_ELEMENT_THEORY></metadata><data><meanElements><EPOCH>2025-12-04T10:47:28.462272</EPOCH><MEAN_MOTION>14.79976441</MEAN_MOTION><ECCENTRICITY>.0013997</ECCENTRICITY><INCLINATION>51.9002</INCLINATION><RA_OF_ASC_NODE>354.2283</RA_OF_ASC_NODE><ARG_OF_PERICENTER>293.8881</ARG_OF_PERICENTER><MEAN_ANOMALY>66.0614</MEAN_ANOMALY></meanElements><tleParameters><EPHEMERIS_TYPE>0</EPHEMERIS_TYPE><CLASSIFICATION_TYPE>U</CLASSIFICATION_TYPE><NORAD_CAT_ID>64838</NORAD_CAT_ID><ELEMENT_SET_NO>999</ELEMENT_SET_NO><REV_AT_EPOCH>2130</REV_AT_EPOCH><BSTAR>.1686E-2</BSTAR><MEAN_MOTION_DOT>.12686E-3</MEAN_MOTION_DOT><MEAN_MOTION_DDOT>0</MEAN_MOTION_DDOT></tleParameters></data></segment></body></omm>
<omm id="CCSDS_OMM_VERS" version="2.0">
<header><CREATION_DATE/><ORIGINATOR/></header><body><segment><metadata><OBJECT_NAME>KUIPER-00094</OBJECT_NAME><OBJECT_ID>2025-151Z</OBJECT_ID><CENTER_NAME>EARTH</CENTER_NAME><REF_FRAME>TEME</REF_FRAME><TIME_SYSTEM>UTC</TIME_SYSTEM><MEAN_ELEMENT_THEORY>SGP4</MEAN_ELEMENT_THEORY></metadata><data><meanElements><EPOCH>2025-12-04T06:54:28.060992</EPOCH><MEAN_MOTION>15.04459969</MEAN_MOTION><ECCENTRICITY>.000477</ECCENTRICITY><INCLINATION>51.8911</INCLINATION><RA_OF_ASC_NODE>341.1707</RA_OF_ASC_NODE><ARG_OF_PERICENTER>327.7728</ARG_OF_PERICENTER><MEAN_ANOMALY>32.2953</MEAN_ANOMALY></meanElements><tleParameters><EPHEMERIS_TYPE>0</EPHEMERIS_TYPE><CLASSIFICATION_TYPE>U</CLASSIFICATION_TYPE><NORAD_CAT_ID>64839</NORAD_CAT_ID><ELEMENT_SET_NO>999</ELEMENT_SET_NO><REV_AT_EPOCH>2147</REV_AT_EPOCH><BSTAR>.14907E-2</BSTAR><MEAN_MOTION_DOT>.20878E-3</MEAN_MOTION_DOT><MEAN_MOTION_DDOT>0</MEAN_MOTION_DDOT></tleParameters></data></segment></body></omm>
<omm id="CCSDS_OMM_VERS" version="2.0">
<header><CREATION_DATE/><ORIGINATOR/></header><body><segment><metadata><OBJECT_NAME>KUIPER-00081</OBJECT_NAME><OBJECT_ID>2025-171A</OBJECT_ID><CENTER_NAME>EARTH</CENTER_NAME><REF_FRAME>TEME</REF_FRAME><TIME_SYSTEM>UTC</TIME_SYSTEM><MEAN_ELEMENT_THEORY>SGP4</MEAN_ELEMENT_THEORY></metadata><data><meanElements><EPOCH>2025-12-04T18:00:02.000160</EPOCH><MEAN_MOTION>15.08094297</MEAN_MOTION><ECCENTRICITY>.0004267</ECCENTRICITY><INCLINATION>51.8884</INCLINATION><RA_OF_ASC_NODE>210.8246</RA_OF_ASC_NODE><ARG_OF_PERICENTER>189.5153</ARG_OF_PERICENTER><MEAN_ANOMALY>285.5397</MEAN_ANOMALY></meanElements><tleParameters><EPHEMERIS_TYPE>0</EPHEMERIS_TYPE><CLASSIFICATION_TYPE>U</CLASSIFICATION_TYPE><NORAD_CAT_ID>65132</NORAD_CAT_ID><ELEMENT_SET_NO>999</ELEMENT_SET_NO><REV_AT_EPOCH>409</REV_AT_EPOCH><BSTAR>-.65463E-1</BSTAR><MEAN_MOTION_DOT>-.943322E-2</MEAN_MOTION_DOT><MEAN_MOTION_DDOT>0</MEAN_MOTION_DDOT></tleParameters></data></segment></body></omm>
<omm id="CCSDS_OMM_VERS" version="2.0">
<header><CREATION_DATE/><ORIGINATOR/></header><body><segment><metadata><OBJECT_NAME>KUIPER-00088</OBJECT_NAME><OBJECT_ID>2025-171B</OBJECT_ID><CENTER_NAME>EARTH</CENTER_NAME><REF_FRAME>TEME</REF_FRAME><TIME_SYSTEM>UTC</TIME_SYSTEM><MEAN_ELEMENT_THEORY>SGP4</MEAN_ELEMENT_THEORY></metadata><data><meanElements><EPOCH>2025-12-04T09:55:46.043904</EPOCH><MEAN_MOTION>14.76698316</MEAN_MOTION><ECCENTRICITY>.0008334</ECCENTRICITY><INCLINATION>51.8985</INCLINATION><RA_OF_ASC_NODE>226.8437</RA_OF_ASC_NODE><ARG_OF_PERICENTER>163.2622</ARG_OF_PERICENTER><MEAN_ANOMALY>196.8615</MEAN_ANOMALY></meanElements><tleParameters><EPHEMERIS_TYPE>0</EPHEMERIS_TYPE><CLASSIFICATION_TYPE>U</CLASSIFICATION_TYPE><NORAD_CAT_ID>65133</NORAD_CAT_ID><ELEMENT_SET_NO>999</ELEMENT_SET_NO><REV_AT_EPOCH>1868</REV_AT_EPOCH><BSTAR>.66666E-3</BSTAR><MEAN_MOTION_DOT>.4497E-4</MEAN_MOTION_DOT><MEAN_MOTION_DDOT>0</MEAN_MOTION_DDOT></tleParameters></data></segment></body></omm>

</ndm>
