KUIPER-00089            
1 64834U 25151U   25338.32276544  .00012539  00000+0  16695-2 0  9991
2 64834  51.9019 347.2985 0001431  43.5090 316.5985 14.79966414 21393
KUIPER-00090            
1 64835U 25151V   25338.30830037  .00007970  00000+0  11124-2 0  9998
2 64835  51.8989 338.9860 0004223  44.0713 316.0584 14.78401789 21509
KUIPER-00091            
1 64836U 25151W   25338.39301382  .00011767  00000+0  15692-2 0  9997
2 64836  51.9012 344.4951 0007932 339.4032  20.6609 14.79935260 21431
KUIPER-00092            
1 64837U 25151X   25338.45186075  .00009708  00000+0  12957-2 0  9998
2 64837  51.9019 351.7249 0006434 288.7068  71.3195 14.80084755 22554
KUIPER-00093            
1 64838U 25151Y   25338.44963498  .00012686  00000+0  16860-2 0  9996
2 64838  51.9002 354.2283 0013997 293.8881  66.0614 14.79976441 21304
KUIPER-00094            
1 64839U 25151Z   25338.28782478  .00020878  00000+0  14907-2 0  9998
2 64839  51.8911 341.1707 0004770 327.7728  32.2953 15.04459969 21474
KUIPER-00081            
1 65132U 25171A   25338.75002315 -.00943322  00000+0 -65463-1 0  9996
2 65132  51.8884 210.8246 0004267 189.5153 285.5397 15.08094297  4094
KUIPER-00088            
1 65133U 25171B   25338.41372736  .00004497  00000+0  66666-3 0  9994
2 65133  51.8985 226.8437 0008334 163.2622 196.8615 14.76698316 18688
